{
  "norad_id": 28371,
  "name": "SAUDISAT 2",
  "history": [
    {
      "epoch": "2026-03-28T22:27:40.291200",
      "apogee_km": 721.5408861822461,
      "perigee_km": 686.6029331889849,
      "latitude_deg": -82.60644887440749,
      "longitude_deg": -13.055232000071555,
      "semi_major_axis_km": 7082.208909685615,
      "eccentricity": 0.0024666,
      "inclination_deg": 98.5507,
      "raan_deg": 85.8502,
      "arg_perigee_deg": 180.5167,
      "mean_anomaly_deg": 179.6009,
      "mean_motion_rev_day": 14.56631381
    }
  ]
}